start=new Date('2023-05-07T00:00:00.000Z').valueOf();
sats=[{"RCS_SIZE":"LARGE","RA_OF_ASC_NODE":"54.3966","APOAPSIS":"547.876","DECAY_DATE":null,"OBJECT_ID":"2021-012J","MEAN_ANOMALY":"262.8484","BSTAR":"0.00160750000000","SEMIMAJOR_AXIS":"6925.356","LAUNCH_DATE":"2021-02-16","EPHEMERIS_TYPE":"0","OBJECT_TYPE":"PAYLOAD","CLASSIFICATION_TYPE":"U","MEAN_ELEMENT_THEORY":"SGP4","OBJECT_NAME":"STARLINK-1973","MEAN_MOTION":"15.06397544","EPOCH":"2023-05-06T00:21:42.957792","PERIOD":"95.592","SITE":"AFETR","ELEMENT_SET_NO":"999","COUNTRY_CODE":"US","GP_ID":"231350039","ECCENTRICITY":"0.00009450","NORAD_CAT_ID":"47628","INCLINATION":"53.0549","MEAN_MOTION_DOT":"0.00023742","TLE_LINE1":"1 47628U 21012J   23126.01508053  .00023742  00000-0  16075-2 0  9998","TIME_SYSTEM":"UTC","REF_FRAME":"TEME","REV_AT_EPOCH":"12343","MEAN_MOTION_DDOT":"0.0000000000000","FILE":"3902298","ARG_OF_PERICENTER":"97.2612","PERIAPSIS":"546.567","CENTER_NAME":"EARTH","TLE_LINE2":"2 47628  53.0549  54.3966 0000945  97.2612 262.8484 15.06397544123434"},{"ARG_OF_PERICENTER":"117.9862","PERIAPSIS":"546.386","CENTER_NAME":"EARTH","TLE_LINE2":"2 47629  53.0541 291.8052 0001182 117.9862 242.1247 15.06402899125184","TLE_LINE1":"1 47629U 21012K   23126.59470681  .00027669  00000-0  18690-2 0  9994","TIME_SYSTEM":"UTC","REF_FRAME":"TEME","REV_AT_EPOCH":"12518","MEAN_MOTION_DDOT":"0.0000000000000","FILE":"3902298","NORAD_CAT_ID":"47629","ECCENTRICITY":"0.00011820","INCLINATION":"53.0541","MEAN_MOTION_DOT":"0.00027669","ELEMENT_SET_NO":"999","COUNTRY_CODE":"US","GP_ID":"231350289","PERIOD":"95.592","SITE":"AFETR","EPHEMERIS_TYPE":"0","OBJECT_TYPE":"PAYLOAD","CLASSIFICATION_TYPE":"U","MEAN_MOTION":"15.06402899","MEAN_ELEMENT_THEORY":"SGP4","OBJECT_NAME":"STARLINK-1974","EPOCH":"2023-05-06T14:16:22.668384","OBJECT_ID":"2021-012K","MEAN_ANOMALY":"242.1247","BSTAR":"0.00186900000000","SEMIMAJOR_AXIS":"6925.340","LAUNCH_DATE":"2021-02-16","RA_OF_ASC_NODE":"291.8052","RCS_SIZE":"LARGE","APOAPSIS":"548.023","DECAY_DATE":null},{"ELEMENT_SET_NO":"999","COUNTRY_CODE":"US","GP_ID":"231351041","INCLINATION":"53.0544","ECCENTRICITY":"0.00011080","NORAD_CAT_ID":"47630","MEAN_MOTION_DOT":"0.00004359","TIME_SYSTEM":"UTC","TLE_LINE1":"1 47630U 21012L   23126.22058408  .00004359  00000-0  31149-3 0  9991","REV_AT_EPOCH":"12372","REF_FRAME":"TEME","MEAN_MOTION_DDOT":"0.0000000000000","FILE":"3902298","PERIAPSIS":"546.511","ARG_OF_PERICENTER":"107.3221","TLE_LINE2":"2 47630  53.0544  33.5733 0001108 107.3221 252.7889 15.06379002123722","CENTER_NAME":"EARTH","APOAPSIS":"548.045","RA_OF_ASC_NODE":"33.5733","RCS_SIZE":"LARGE","DECAY_DATE":null,"OBJECT_ID":"2021-012L","MEAN_ANOMALY":"252.7889","BSTAR":"0.00031149000000","SEMIMAJOR_AXIS":"6925.413","LAUNCH_DATE":"2021-02-16","OBJECT_TYPE":"PAYLOAD","EPHEMERIS_TYPE":"0","CLASSIFICATION_TYPE":"U","EPOCH":"2023-05-06T05:17:38.464512","OBJECT_NAME":"STARLINK-1983","MEAN_ELEMENT_THEORY":"SGP4","MEAN_MOTION":"15.06379002","PERIOD":"95.593","SITE":"AFETR"},{"MEAN_MOTION_DOT":"0.00020171","INCLINATION":"53.0547","NORAD_CAT_ID":"47632","ECCENTRICITY":"0.00011160","GP_ID":"231316985","COUNTRY_CODE":"US","ELEMENT_SET_NO":"999","TLE_LINE2":"2 47632  53.0547 320.0059 0001116  97.2767 262.8349 15.06432598124727","CENTER_NAME":"EARTH","ARG_OF_PERICENTER":"97.2767","PERIAPSIS":"546.341","FILE":"3901993","MEAN_MOTION_DDOT":"0.0000000000000","REV_AT_EPOCH":"12472","REF_FRAME":"TEME","TIME_SYSTEM":"UTC","TLE_LINE1":"1 47632U 21012N   23125.88190889  .00020171  00000-0  13680-2 0  9993","SEMIMAJOR_AXIS":"6925.249","LAUNCH_DATE":"2021-02-16","BSTAR":"0.00136800000000","MEAN_ANOMALY":"262.8349","OBJECT_ID":"2021-012N","DECAY_DATE":null,"APOAPSIS":"547.887","RA_OF_ASC_NODE":"320.0059","RCS_SIZE":"LARGE","SITE":"AFETR","PERIOD":"95.590","EPOCH":"2023-05-05T21:09:56.928096","MEAN_MOTION":"15.06432598","OBJECT_NAME":"STARLINK-1992","MEAN_ELEMENT_THEORY":"SGP4","CLASSIFICATION_TYPE":"U","OBJECT_TYPE":"PAYLOAD","EPHEMERIS_TYPE":"0"},{"MEAN_ANOMALY":"242.9610","OBJECT_ID":"2021-012P","LAUNCH_DATE":"2021-02-16","SEMIMAJOR_AXIS":"6925.392","BSTAR":"0.00188680000000","DECAY_DATE":null,"APOAPSIS":"548.163","RCS_SIZE":"LARGE","RA_OF_ASC_NODE":"53.4592","PERIOD":"95.593","SITE":"AFETR","CLASSIFICATION_TYPE":"U","OBJECT_TYPE":"PAYLOAD","EPHEMERIS_TYPE":"0","EPOCH":"2023-05-06T05:34:52.249152","OBJECT_NAME":"STARLINK-2009","MEAN_ELEMENT_THEORY":"SGP4","MEAN_MOTION":"15.06385736","MEAN_MOTION_DOT":"0.00027923","INCLINATION":"53.0549","ECCENTRICITY":"0.00013080","NORAD_CAT_ID":"47633","ELEMENT_SET_NO":"999","GP_ID":"231349539","COUNTRY_CODE":"US","ARG_OF_PERICENTER":"117.1512","PERIAPSIS":"546.351","TLE_LINE2":"2 47633  53.0549  53.4592 0001308 117.1512 242.9610 15.06385736123485","CENTER_NAME":"EARTH","REV_AT_EPOCH":"12348","REF_FRAME":"TEME","TIME_SYSTEM":"UTC","TLE_LINE1":"1 47633U 21012P   23126.23254918  .00027923  00000-0  18868-2 0  9993","FILE":"3902298","MEAN_MOTION_DDOT":"0.0000000000000"},{"MEAN_ELEMENT_THEORY":"SGP4","OBJECT_NAME":"STARLINK-2010","MEAN_MOTION":"15.06390459","EPOCH":"2023-05-06T01:47:59.883360","CLASSIFICATION_TYPE":"U","EPHEMERIS_TYPE":"0","OBJECT_TYPE":"PAYLOAD","SITE":"AFETR","PERIOD":"95.593","DECAY_DATE":null,"RCS_SIZE":"LARGE","RA_OF_ASC_NODE":"54.1388","APOAPSIS":"547.966","LAUNCH_DATE":"2021-02-16","SEMIMAJOR_AXIS":"6925.378","BSTAR":"0.00129520000000","MEAN_ANOMALY":"257.1133","OBJECT_ID":"2021-012Q","FILE":"3902298","MEAN_MOTION_DDOT":"0.0000000000000","REF_FRAME":"TEME","REV_AT_EPOCH":"12343","TLE_LINE1":"1 47634U 21012Q   23126.07499865  .00019058  00000-0  12952-2 0  9996","TIME_SYSTEM":"UTC","TLE_LINE2":"2 47634  53.0554  54.1388 0001044 102.9972 257.1133 15.06390459123433","CENTER_NAME":"EARTH","PERIAPSIS":"546.520","ARG_OF_PERICENTER":"102.9972","GP_ID":"231349789","COUNTRY_CODE":"US","ELEMENT_SET_NO":"999","MEAN_MOTION_DOT":"0.00019058","ECCENTRICITY":"0.00010440","NORAD_CAT_ID":"47634","INCLINATION":"53.0554"},{"MEAN_MOTION_DDOT":"0.0000000000000","FILE":"3902298","TLE_LINE1":"1 47635U 21012R   23126.49841344  .00023582  00000-0  15962-2 0  9997","TIME_SYSTEM":"UTC","REF_FRAME":"TEME","REV_AT_EPOCH":"12483","CENTER_NAME":"EARTH","TLE_LINE2":"2 47635  53.0536 317.2390 0002344  78.3975 281.7277 15.06411521124834","ARG_OF_PERICENTER":"78.3975","PERIAPSIS":"545.555","COUNTRY_CODE":"US","GP_ID":"231350541","ELEMENT_SET_NO":"999","NORAD_CAT_ID":"47635","ECCENTRICITY":"0.00023440","INCLINATION":"53.0536","MEAN_MOTION_DOT":"0.00023582","OBJECT_NAME":"STARLINK-2012","MEAN_MOTION":"15.06411521","MEAN_ELEMENT_THEORY":"SGP4","EPOCH":"2023-05-06T11:57:42.921216","EPHEMERIS_TYPE":"0","OBJECT_TYPE":"PAYLOAD","CLASSIFICATION_TYPE":"U","PERIOD":"95.591","SITE":"AFETR","RA_OF_ASC_NODE":"317.2390","RCS_SIZE":"LARGE","APOAPSIS":"548.802","DECAY_DATE":null,"BSTAR":"0.00159620000000","LAUNCH_DATE":"2021-02-16","SEMIMAJOR_AXIS":"6925.313","OBJECT_ID":"2021-012R","MEAN_ANOMALY":"281.7277"},{"FILE":"3902298","MEAN_MOTION_DDOT":"0.0000000000000","REV_AT_EPOCH":"12371","REF_FRAME":"TEME","TIME_SYSTEM":"UTC","TLE_LINE1":"1 47636U 21012S   23126.06210169  .00021245  00000-0  14413-2 0  9990","CENTER_NAME":"EARTH","TLE_LINE2":"2 47636  53.0542  34.1967 0000840 101.3720 258.7363 15.06389220123717","PERIAPSIS":"546.665","ARG_OF_PERICENTER":"101.3720","GP_ID":"231350784","COUNTRY_CODE":"US","ELEMENT_SET_NO":"999","MEAN_MOTION_DOT":"0.00021245","INCLINATION":"53.0542","NORAD_CAT_ID":"47636","ECCENTRICITY":"0.00008400","EPOCH":"2023-05-06T01:29:25.586016","OBJECT_NAME":"STARLINK-2013","MEAN_ELEMENT_THEORY":"SGP4","MEAN_MOTION":"15.06389220","CLASSIFICATION_TYPE":"U","OBJECT_TYPE":"PAYLOAD","EPHEMERIS_TYPE":"0","PERIOD":"95.593","SITE":"AFETR","DECAY_DATE":null,"APOAPSIS":"547.828","RCS_SIZE":"LARGE","RA_OF_ASC_NODE":"34.1967","LAUNCH_DATE":"2021-02-16","SEMIMAJOR_AXIS":"6925.382","BSTAR":"0.00144130000000","MEAN_ANOMALY":"258.7363","OBJECT_ID":"2021-012S"},{"COUNTRY_CODE":"US","GP_ID":"231350040","ELEMENT_SET_NO":"999","INCLINATION":"53.0551","NORAD_CAT_ID":"47637","ECCENTRICITY":"0.00013320","MEAN_MOTION_DOT":"0.00026599","MEAN_MOTION_DDOT":"0.0000000000000","FILE":"3902298","TIME_SYSTEM":"UTC","TLE_LINE1":"1 47637U 21012T   23126.23165716  .00026599  00000-0  17984-2 0  9990","REV_AT_EPOCH":"12375","REF_FRAME":"TEME","CENTER_NAME":"EARTH","TLE_LINE2":"2 47637  53.0551  33.4381 0001332  87.7032 272.4109 15.06388401123755","ARG_OF_PERICENTER":"87.7032","PERIAPSIS":"546.327","APOAPSIS":"548.172","RCS_SIZE":"LARGE","RA_OF_ASC_NODE":"33.4381","DECAY_DATE":null,"BSTAR":"0.00179840000000","SEMIMAJOR_AXIS":"6925.384","LAUNCH_DATE":"2021-02-16","OBJECT_ID":"2021-012T","MEAN_ANOMALY":"272.4109","EPOCH":"2023-05-06T05:33:35.178624","OBJECT_NAME":"STARLINK-2014","MEAN_ELEMENT_THEORY":"SGP4","MEAN_MOTION":"15.06388401","OBJECT_TYPE":"PAYLOAD","EPHEMERIS_TYPE":"0","CLASSIFICATION_TYPE":"U","SITE":"AFETR","PERIOD":"95.593"},{"TLE_LINE1":"1 47638U 21012U   23126.22933326  .00002390  00000-0  17920-3 0  9994","TIME_SYSTEM":"UTC","REF_FRAME":"TEME","REV_AT_EPOCH":"12477","MEAN_MOTION_DDOT":"0.0000000000000","FILE":"3902298","PERIAPSIS":"546.203","ARG_OF_PERICENTER":"86.6136","TLE_LINE2":"2 47638  53.0538 318.4481 0001401  86.6136 273.5013 15.06413275124775","CENTER_NAME":"EARTH","ELEMENT_SET_NO":"999","COUNTRY_CODE":"US","GP_ID":"231350290","ECCENTRICITY":"0.00014010","NORAD_CAT_ID":"47638","INCLINATION":"53.0538","MEAN_MOTION_DOT":"0.00002390","EPHEMERIS_TYPE":"0","OBJECT_TYPE":"PAYLOAD","CLASSIFICATION_TYPE":"U","MEAN_MOTION":"15.06413275","MEAN_ELEMENT_THEORY":"SGP4","OBJECT_NAME":"STARLINK-2015","EPOCH":"2023-05-06T05:30:14.393664","PERIOD":"95.591","SITE":"AFETR","RCS_SIZE":"LARGE","RA_OF_ASC_NODE":"318.4481","APOAPSIS":"548.143","DECAY_DATE":null,"OBJECT_ID":"2021-012U","MEAN_ANOMALY":"273.5013","BSTAR":"0.00017920000000","SEMIMAJOR_AXIS":"6925.308","LAUNCH_DATE":"2021-02-16"}];
